STARLINK-30494          
1 57970U 23151G   26068.36049035 -.00001272  00000+0 -35691-4 0  9993
2 57970  43.0027 192.4566 0001155 241.5536 118.5200 15.28417441137406
STARLINK-34520          
1 64486U 25133Q   26068.54766910  .00025128  00000+0  85787-3 0  9997
2 64486  53.1580 117.6698 0001260  79.6260 280.4883 15.30192336 41167
